{"type": "FeatureCollection", "features": [ {"type": "Feature", "properties": {"norad_id": 67059, "name": "HULIANWANG DIGUI-119", "group": "last-30-days", "lat": -16.007103318424935, "lon": 171.5375818678773, "alt_km": 806.4489993031348, "timestamp": "2025-12-20T22:39:09.410131+00:00", "meta": {"OBJECT_NAME": "HULIANWANG DIGUI-119", "OBJECT_ID": "2025-295A", "EPOCH": "2025-12-17T11:16:29.850816", "MEAN_MOTION": 14.25569756, "ECCENTRICITY": 0.00138963, "INCLINATION": 50.007, "RA_OF_ASC_NODE": 352.2731, "ARG_OF_PERICENTER": 264.5159, "MEAN_ANOMALY": 95.417, "EPHEMERIS_TYPE": 0, "CLASSIFICATION_TYPE": "U", "NORAD_CAT_ID": 67059, "ELEMENT_SET_NO": 999, "REV_AT_EPOCH": 79, "BSTAR": -9.003402e-06, "MEAN_MOTION_DOT": -1.82e-06, "MEAN_MOTION_DDOT": 0}, "tle": {"line1": "1 67059U 25295A   25351.46978994 -.00000182  00000+0 -90034-5 0  9995", "line2": "2 67059  50.0070 352.2731 0013896 264.5159  95.4170 14.25569756   795"}}, "geometry": {"type": "Point", "coordinates": [171.5375818678773, -16.007103318424935]}}, {"type": "Feature", "properties": {"norad_id": 67060, "name": "HULIANWANG DIGUI-120", "group": "last-30-days", "lat": -19.258610656979968, "lon": 174.64889410649906, "alt_km": 805.534390175254, "timestamp": "2025-12-20T22:39:09.410140+00:00", "meta": {"OBJECT_NAME": "HULIANWANG DIGUI-120", "OBJECT_ID": "2025-295B", "EPOCH": "2025-12-15T17:12:24.401376", "MEAN_MOTION": 14.25706335, "ECCENTRICITY": 0.00132237, "INCLINATION": 50.005, "RA_OF_ASC_NODE": 359.6709, "ARG_OF_PERICENTER": 257.265, "MEAN_ANOMALY": 102.6786, "EPHEMERIS_TYPE": 0, "CLASSIFICATION_TYPE": "U", "NORAD_CAT_ID": 67060, "ELEMENT_SET_NO": 999, "REV_AT_EPOCH": 54, "BSTAR": 6.6896441e-05, "MEAN_MOTION_DOT": 0, "MEAN_MOTION_DDOT": 0}, "tle": {"line1": "1 67060U 25295B   25349.71694909  .00000000  00000+0  66896-4 0  9998", "line2": "2 67060  50.0050 359.6709 0013223 257.2650 102.6786 14.25706335   543"}}, "geometry": {"type": "Point", "coordinates": [174.64889410649906, -19.258610656979968]}}, {"type": "Feature", "properties": {"norad_id": 67061, "name": "HULIANWANG DIGUI-121", "group": "last-30-days", "lat": -19.667239998767283, "lon": 175.04241865588645, "alt_km": 805.252563058556, "timestamp": "2025-12-20T22:39:09.410149+00:00", "meta": {"OBJECT_NAME": "HULIANWANG DIGUI-121", "OBJECT_ID": "2025-295C", "EPOCH": "2025-12-15T17:12:22.292352", "MEAN_MOTION": 14.25729079, "ECCENTRICITY": 0.00132682, "INCLINATION": 50.0012, "RA_OF_ASC_NODE": 359.6606, "ARG_OF_PERICENTER": 256.3366, "MEAN_ANOMALY": 103.6071, "EPHEMERIS_TYPE": 0, "CLASSIFICATION_TYPE": "U", "NORAD_CAT_ID": 67061, "ELEMENT_SET_NO": 999, "REV_AT_EPOCH": 54, "BSTAR": 6.6638352e-05, "MEAN_MOTION_DOT": -1e-08, "MEAN_MOTION_DDOT": 0}, "tle": {"line1": "1 67061U 25295C   25349.71692468 -.00000001  00000+0  66638-4 0  9993", "line2": "2 67061  50.0012 359.6606 0013268 256.3366 103.6071 14.25729079   549"}}, "geometry": {"type": "Point", "coordinates": [175.04241865588645, -19.667239998767283]}}, {"type": "Feature", "properties": {"norad_id": 67062, "name": "HULIANWANG DIGUI-122", "group": "last-30-days", "lat": -20.39084944046773, "lon": 175.7778690466711, "alt_km": 806.2886023329684, "timestamp": "2025-12-20T22:39:09.410158+00:00", "meta": {"OBJECT_NAME": "HULIANWANG DIGUI-122", "OBJECT_ID": "2025-295D", "EPOCH": "2025-12-20T14:57:21.043872", "MEAN_MOTION": 14.25755798, "ECCENTRICITY": 0.00131651, "INCLINATION": 50.0054, "RA_OF_ASC_NODE": 338.95, "ARG_OF_PERICENTER": 281.0478, "MEAN_ANOMALY": 78.8955, "EPHEMERIS_TYPE": 0, "CLASSIFICATION_TYPE": "U", "NORAD_CAT_ID": 67062, "ELEMENT_SET_NO": 999, "REV_AT_EPOCH": 124, "BSTAR": 9.302727e-05, "MEAN_MOTION_DOT": 6.2e-07, "MEAN_MOTION_DDOT": 0}, "tle": {"line1": "1 67062U 25295D   25354.62316023  .00000062  00000+0  93027-4 0  9998", "line2": "2 67062  50.0054 338.9500 0013165 281.0478  78.8955 14.25755798  1243"}}, "geometry": {"type": "Point", "coordinates": [175.7778690466711, -20.39084944046773]}}, {"type": "Feature", "properties": {"norad_id": 67063, "name": "HULIANWANG DIGUI-123", "group": "last-30-days", "lat": -23.480974936713242, "lon": 178.97727059962017, "alt_km": 805.4683781189215, "timestamp": "2025-12-20T22:39:09.410168+00:00", "meta": {"OBJECT_NAME": "HULIANWANG DIGUI-123", "OBJECT_ID": "2025-295E", "EPOCH": "2025-12-20T13:15:16.515936", "MEAN_MOTION": 14.25888585, "ECCENTRICITY": 0.00124769, "INCLINATION": 50.0061, "RA_OF_ASC_NODE": 339.2442, "ARG_OF_PERICENTER": 279.9818, "MEAN_ANOMALY": 79.9688, "EPHEMERIS_TYPE": 0, "CLASSIFICATION_TYPE": "U", "NORAD_CAT_ID": 67063, "ELEMENT_SET_NO": 999, "REV_AT_EPOCH": 123, "BSTAR": 9.3595584e-05, "MEAN_MOTION_DOT": 6.4e-07, "MEAN_MOTION_DDOT": 0}, "tle": {"line1": "1 67063U 25295E   25354.55227449  .00000064  00000+0  93596-4 0  9997", "line2": "2 67063  50.0061 339.2442 0012476 279.9818  79.9688 14.25888585  1234"}}, "geometry": {"type": "Point", "coordinates": [178.97727059962017, -23.480974936713242]}}, {"type": "Feature", "properties": {"norad_id": 67064, "name": "HULIANWANG DIGUI-124", "group": "last-30-days", "lat": -24.87287988216684, "lon": -179.52193213508593, "alt_km": 804.4699871833827, "timestamp": "2025-12-20T22:39:09.410176+00:00", "meta": {"OBJECT_NAME": "HULIANWANG DIGUI-124", "OBJECT_ID": "2025-295F", "EPOCH": "2025-12-20T14:55:40.133856", "MEAN_MOTION": 14.25949082, "ECCENTRICITY": 0.00120879, "INCLINATION": 50.0035, "RA_OF_ASC_NODE": 338.9325, "ARG_OF_PERICENTER": 274.9622, "MEAN_ANOMALY": 84.9912, "EPHEMERIS_TYPE": 0, "CLASSIFICATION_TYPE": "U", "NORAD_CAT_ID": 67064, "ELEMENT_SET_NO": 999, "REV_AT_EPOCH": 124, "BSTAR": -0.00017950155, "MEAN_MOTION_DOT": -5.91e-06, "MEAN_MOTION_DDOT": 0}, "tle": {"line1": "1 67064U 25295F   25354.62199229 -.00000591  00000+0 -17950-3 0  9996", "line2": "2 67064  50.0035 338.9325 0012087 274.9622  84.9912 14.25949082  1245"}}, "geometry": {"type": "Point", "coordinates": [-179.52193213508593, -24.87287988216684]}}, {"type": "Feature", "properties": {"norad_id": 67065, "name": "HULIANWANG DIGUI-125", "group": "last-30-days", "lat": -24.973213677457277, "lon": -179.41052629236006, "alt_km": 805.2161301235928, "timestamp": "2025-12-20T22:39:09.410189+00:00", "meta": {"OBJECT_NAME": "HULIANWANG DIGUI-125", "OBJECT_ID": "2025-295G", "EPOCH": "2025-12-20T14:55:37.692192", "MEAN_MOTION": 14.25954222, "ECCENTRICITY": 0.00122713, "INCLINATION": 50.0011, "RA_OF_ASC_NODE": 338.9308, "ARG_OF_PERICENTER": 280.9433, "MEAN_ANOMALY": 79.01, "EPHEMERIS_TYPE": 0, "CLASSIFICATION_TYPE": "U", "NORAD_CAT_ID": 67065, "ELEMENT_SET_NO": 999, "REV_AT_EPOCH": 124, "BSTAR": 8.5529881e-05, "MEAN_MOTION_DOT": 4.5e-07, "MEAN_MOTION_DDOT": 0}, "tle": {"line1": "1 67065U 25295G   25354.62196403  .00000045  00000+0  85530-4 0  9990", "line2": "2 67065  50.0011 338.9308 0012271 280.9433  79.0100 14.25954222  1249"}}, "geometry": {"type": "Point", "coordinates": [-179.41052629236006, -24.973213677457277]}}, {"type": "Feature", "properties": {"norad_id": 67066, "name": "HULIANWANG DIGUI-126", "group": "last-30-days", "lat": -28.24914685464645, "lon": -175.62382078771978, "alt_km": 804.2059084369148, "timestamp": "2025-12-20T22:39:09.410199+00:00", "meta": {"OBJECT_NAME": "HULIANWANG DIGUI-126", "OBJECT_ID": "2025-295H", "EPOCH": "2025-12-20T14:54:21.506400", "MEAN_MOTION": 14.2609721, "ECCENTRICITY": 0.00114356, "INCLINATION": 50.0014, "RA_OF_ASC_NODE": 338.9253, "ARG_OF_PERICENTER": 278.0037, "MEAN_ANOMALY": 81.9579, "EPHEMERIS_TYPE": 0, "CLASSIFICATION_TYPE": "U", "NORAD_CAT_ID": 67066, "ELEMENT_SET_NO": 999, "REV_AT_EPOCH": 124, "BSTAR": 8.4158494e-05, "MEAN_MOTION_DOT": 4.2e-07, "MEAN_MOTION_DDOT": 0}, "tle": {"line1": "1 67066U 25295H   25354.62108225  .00000042  00000+0  84158-4 0  9998", "line2": "2 67066  50.0014 338.9253 0011435 278.0037  81.9579 14.26097210  1249"}}, "geometry": {"type": "Point", "coordinates": [-175.62382078771978, -28.24914685464645]}}, {"type": "Feature", "properties": {"norad_id": 67067, "name": "HULIANWANG DIGUI-127", "group": "last-30-days", "lat": -31.25126302075214, "lon": -171.8141091934145, "alt_km": 803.9981217833911, "timestamp": "2025-12-20T22:39:09.410209+00:00", "meta": {"OBJECT_NAME": "HULIANWANG DIGUI-127", "OBJECT_ID": "2025-295J", "EPOCH": "2025-12-20T09:50:28.386528", "MEAN_MOTION": 14.26250847, "ECCENTRICITY": 0.00108807, "INCLINATION": 50.0053, "RA_OF_ASC_NODE": 339.8165, "ARG_OF_PERICENTER": 280.9688, "MEAN_ANOMALY": 79.0002, "EPHEMERIS_TYPE": 0, "CLASSIFICATION_TYPE": "U", "NORAD_CAT_ID": 67067, "ELEMENT_SET_NO": 999, "REV_AT_EPOCH": 121, "BSTAR": -0.00026559094, "MEAN_MOTION_DOT": -8.02e-06, "MEAN_MOTION_DDOT": 0}, "tle": {"line1": "1 67067U 25295J   25354.41005077 -.00000802  00000+0 -26559-3 0  9993", "line2": "2 67067  50.0053 339.8165 0010880 280.9688  79.0002 14.26250847  1215"}}, "geometry": {"type": "Point", "coordinates": [-171.8141091934145, -31.25126302075214]}}, {"type": "Feature", "properties": {"norad_id": 67068, "name": "CZ-12 R/B", "group": "last-30-days", "lat": -14.738953364495794, "lon": -36.08056164097356, "alt_km": 797.4320022204947, "timestamp": "2025-12-20T22:39:09.410225+00:00", "meta": {"OBJECT_NAME": "CZ-12 R/B", "OBJECT_ID": "2025-295K", "EPOCH": "2025-12-20T09:25:47.149248", "MEAN_MOTION": 14.41128985, "ECCENTRICITY": 0.00568631, "INCLINATION": 49.9943, "RA_OF_ASC_NODE": 339.0702, "ARG_OF_PERICENTER": 163.3207, "MEAN_ANOMALY": 196.96, "EPHEMERIS_TYPE": 0, "CLASSIFICATION_TYPE": "U", "NORAD_CAT_ID": 67068, "ELEMENT_SET_NO": 999, "REV_AT_EPOCH": 121, "BSTAR": 9.141767e-06, "MEAN_MOTION_DOT": -1.38e-06, "MEAN_MOTION_DDOT": 0}, "tle": {"line1": "1 67068U 25295K   25354.39290682 -.00000138  00000+0  91418-5 0  9998", "line2": "2 67068  49.9943 339.0702 0056863 163.3207 196.9600 14.41128985  1219"}}, "geometry": {"type": "Point", "coordinates": [-36.08056164097356, -14.738953364495794]}}]}